{
  "type": "FeatureCollection",
  "features": [
    {
      "type": "Feature",
      "properties": {
        "norad_id": 37836,
        "name": "EUTELSAT 16A",
        "group": "eutelsat",
        "lat": 0.005634038857557157,
        "lon": 167.22741412224056,
        "alt_km": 35793.68148688273,
        "timestamp": "2025-12-24T03:53:29.313697+00:00",
        "meta_object_name": "EUTELSAT 16A",
        "meta_object_id": "2011-057A",
        "meta_epoch": "2025-12-23T18:20:36.841056",
        "meta_mean_motion": 1.00270619,
        "meta_eccentricity": 0.0005851,
        "meta_inclination": 0.057,
        "meta_ra_of_asc_node": 345.8246,
        "meta_arg_of_pericenter": 288.5803,
        "meta_mean_anomaly": 109.2843,
        "meta_ephemeris_type": 0,
        "meta_classification_type": "U",
        "meta_norad_cat_id": 37836,
        "meta_element_set_no": 999,
        "meta_rev_at_epoch": 556,
        "meta_bstar": 0,
        "meta_mean_motion_dot": 1.25e-06,
        "meta_mean_motion_ddot": 0,
        "tle_line1": "1 37836U 11057A   25357.76431529  .00000125  00000+0  00000+0 0  9996",
        "tle_line2": "2 37836   0.0570 345.8246 0005851 288.5803 109.2843  1.00270619  5565"
      },
      "geometry": {
        "type": "Point",
        "coordinates": [
          167.22741412224056,
          0.005634038857557157
        ]
      }
    },
    {
      "type": "Feature",
      "properties": {
        "norad_id": 38992,
        "name": "EUTELSAT 21B",
        "group": "eutelsat",
        "lat": -0.0015550735702675187,
        "lon": 172.849538784841,
        "alt_km": 35789.944803532286,
        "timestamp": "2025-12-24T03:53:29.313708+00:00",
        "meta_object_name": "EUTELSAT 21B",
        "meta_object_id": "2012-062B",
        "meta_epoch": "2025-12-23T18:22:14.186208",
        "meta_mean_motion": 1.00270522,
        "meta_eccentricity": 0.0003252,
        "meta_inclination": 0.0664,
        "meta_ra_of_asc_node": 346.988,
        "meta_arg_of_pericenter": 290.8473,
        "meta_mean_anomaly": 111.8547,
        "meta_ephemeris_type": 0,
        "meta_classification_type": "U",
        "meta_norad_cat_id": 38992,
        "meta_element_set_no": 999,
        "meta_rev_at_epoch": 4806,
        "meta_bstar": 0,
        "meta_mean_motion_dot": 1.51e-06,
        "meta_mean_motion_ddot": 0,
        "tle_line1": "1 38992U 12062B   25357.76544197  .00000151  00000+0  00000+0 0  9992",
        "tle_line2": "2 38992   0.0664 346.9880 0003252 290.8473 111.8547  1.00270522 48066"
      },
      "geometry": {
        "type": "Point",
        "coordinates": [
          172.849538784841,
          -0.0015550735702675187
        ]
      }
    },
    {
      "type": "Feature",
      "properties": {
        "norad_id": 39020,
        "name": "EUTELSAT 70B",
        "group": "eutelsat",
        "lat": -0.06525249444421925,
        "lon": -138.226757260136,
        "alt_km": 35770.907725269295,
        "timestamp": "2025-12-24T03:53:29.313720+00:00",
        "meta_object_name": "EUTELSAT 70B",
        "meta_object_id": "2012-069A",
        "meta_epoch": "2025-12-23T20:08:53.303712",
        "meta_mean_motion": 1.00271817,
        "meta_eccentricity": 0.0004241,
        "meta_inclination": 0.0627,
        "meta_ra_of_asc_node": 344.4695,
        "meta_arg_of_pericenter": 269.4206,
        "meta_mean_anomaly": 211.4478,
        "meta_ephemeris_type": 0,
        "meta_classification_type": "U",
        "meta_norad_cat_id": 39020,
        "meta_element_set_no": 999,
        "meta_rev_at_epoch": 4775,
        "meta_bstar": 0,
        "meta_mean_motion_dot": -2.2e-07,
        "meta_mean_motion_ddot": 0,
        "tle_line1": "1 39020U 12069A   25357.83950583 -.00000022  00000+0  00000+0 0  9998",
        "tle_line2": "2 39020   0.0627 344.4695 0004241 269.4206 211.4478  1.00271817 47753"
      },
      "geometry": {
        "type": "Point",
        "coordinates": [
          -138.226757260136,
          -0.06525249444421925
        ]
      }
    },
    {
      "type": "Feature",
      "properties": {
        "norad_id": 39122,
        "name": "EUTELSAT 117 WEST A",
        "group": "eutelsat",
        "lat": 0.029194841472150696,
        "lon": 34.541450232053435,
        "alt_km": 35791.91026630983,
        "timestamp": "2025-12-24T03:53:29.313733+00:00",
        "meta_object_name": "EUTELSAT 117 WEST A",
        "meta_object_id": "2013-012A",
        "meta_epoch": "2025-12-23T16:00:05.299200",
        "meta_mean_motion": 1.00270813,
        "meta_eccentricity": 0.0002685,
        "meta_inclination": 0.0226,
        "meta_ra_of_asc_node": 313.4585,
        "meta_arg_of_pericenter": 321.6945,
        "meta_mean_anomaly": 300.5313,
        "meta_ephemeris_type": 0,
        "meta_classification_type": "U",
        "meta_norad_cat_id": 39122,
        "meta_element_set_no": 999,
        "meta_rev_at_epoch": 4667,
        "meta_bstar": 0,
        "meta_mean_motion_dot": 8e-08,
        "meta_mean_motion_ddot": 0,
        "tle_line1": "1 39122U 13012A   25357.66672800  .00000008  00000+0  00000+0 0  9997",
        "tle_line2": "2 39122   0.0226 313.4585 0002685 321.6945 300.5313  1.00270813 46679"
      },
      "geometry": {
        "type": "Point",
        "coordinates": [
          34.541450232053435,
          0.029194841472150696
        ]
      }
    },
    {
      "type": "Feature",
      "properties": {
        "norad_id": 39163,
        "name": "EUTELSAT 7B",
        "group": "eutelsat",
        "lat": 0.04302092220324514,
        "lon": 158.2848691391635,
        "alt_km": 35804.421954889585,
        "timestamp": "2025-12-24T03:53:29.313745+00:00",
        "meta_object_name": "EUTELSAT 7B",
        "meta_object_id": "2013-022A",
        "meta_epoch": "2025-12-23T18:18:07.081344",
        "meta_mean_motion": 1.0027145,
        "meta_eccentricity": 0.0004513,
        "meta_inclination": 0.0656,
        "meta_ra_of_asc_node": 6.4848,
        "meta_arg_of_pericenter": 316.0152,
        "meta_mean_anomaly": 51.5695,
        "meta_ephemeris_type": 0,
        "meta_classification_type": "U",
        "meta_norad_cat_id": 39163,
        "meta_element_set_no": 999,
        "meta_rev_at_epoch": 4618,
        "meta_bstar": 0,
        "meta_mean_motion_dot": 6.9e-07,
        "meta_mean_motion_ddot": 0,
        "tle_line1": "1 39163U 13022A   25357.76258196  .00000069  00000+0  00000+0 0  9999",
        "tle_line2": "2 39163   0.0656   6.4848 0004513 316.0152  51.5695  1.00271450 46182"
      },
      "geometry": {
        "type": "Point",
        "coordinates": [
          158.2848691391635,
          0.04302092220324514
        ]
      }
    },
    {
      "type": "Feature",
      "properties": {
        "norad_id": 39612,
        "name": "EXPRESS-AT1",
        "group": "eutelsat",
        "lat": -0.013694556702980759,
        "lon": -152.68453234555605,
        "alt_km": 35785.9045616466,
        "timestamp": "2025-12-24T03:53:29.313757+00:00",
        "meta_object_name": "EXPRESS-AT1",
        "meta_object_id": "2014-010A",
        "meta_epoch": "2025-12-23T20:45:38.572128",
        "meta_mean_motion": 1.0027104,
        "meta_eccentricity": 9.39e-05,
        "meta_inclination": 0.0153,
        "meta_ra_of_asc_node": 287.9402,
        "meta_arg_of_pericenter": 194.834,
        "meta_mean_anomaly": 337.2835,
        "meta_ephemeris_type": 0,
        "meta_classification_type": "U",
        "meta_norad_cat_id": 39612,
        "meta_element_set_no": 999,
        "meta_rev_at_epoch": 4306,
        "meta_bstar": 0,
        "meta_mean_motion_dot": 1e-06,
        "meta_mean_motion_ddot": 0,
        "tle_line1": "1 39612U 14010A   25357.86502977  .00000100  00000+0  00000+0 0  9992",
        "tle_line2": "2 39612   0.0153 287.9402 0000939 194.8340 337.2835  1.00271040 43063"
      },
      "geometry": {
        "type": "Point",
        "coordinates": [
          -152.68453234555605,
          -0.013694556702980759
        ]
      }
    },
    {
      "type": "Feature",
      "properties": {
        "norad_id": 39613,
        "name": "EXPRESS-AT2",
        "group": "eutelsat",
        "lat": -0.015309737936336184,
        "lon": -68.82769059709727,
        "alt_km": 35779.35338164855,
        "timestamp": "2025-12-24T03:53:29.313770+00:00",
        "meta_object_name": "EXPRESS-AT2",
        "meta_object_id": "2014-010B",
        "meta_epoch": "2025-12-23T20:38:46.260960",
        "meta_mean_motion": 1.00273191,
        "meta_eccentricity": 0.0001518,
        "meta_inclination": 0.0123,
        "meta_ra_of_asc_node": 303.5247,
        "meta_arg_of_pericenter": 340.0899,
        "meta_mean_anomaly": 258.5835,
        "meta_ephemeris_type": 0,
        "meta_classification_type": "U",
        "meta_norad_cat_id": 39613,
        "meta_element_set_no": 999,
        "meta_rev_at_epoch": 4274,
        "meta_bstar": 0,
        "meta_mean_motion_dot": -2.6e-06,
        "meta_mean_motion_ddot": 0,
        "tle_line1": "1 39613U 14010B   25357.86025765 -.00000260  00000+0  00000+0 0  9996",
        "tle_line2": "2 39613   0.0123 303.5247 0001518 340.0899 258.5835  1.00273191 42749"
      },
      "geometry": {
        "type": "Point",
        "coordinates": [
          -68.82769059709727,
          -0.015309737936336184
        ]
      }
    }
  ]
}